{
  "norad_id": 59475,
  "name": "STARLINK-31566",
  "history": [
    {
      "epoch": "2026-03-28T21:49:57.064800Z",
      "apogee_km": 483.6187454368992,
      "perigee_km": 482.4161222877319,
      "latitude_deg": -1.6897427988781698e-05,
      "longitude_deg": 132.03154639589482,
      "height_km": 482.6452642419092,
      "semi_major_axis_km": 6861.154433862315,
      "eccentricity": 8.764e-05,
      "inclination_deg": 42.9999,
      "raan_deg": 285.8427,
      "arg_perigee_deg": 284.2884,
      "mean_anomaly_deg": 75.787,
      "mean_motion_rev_day": 15.27590574
    },
    {
      "epoch": "2026-03-28T23:24:06.344352Z",
      "apogee_km": 483.6114958934504,
      "perigee_km": 482.41216707770764,
      "latitude_deg": 3.454557023238698e-05,
      "longitude_deg": 108.0584898575094,
      "height_km": 482.51350778730404,
      "semi_major_axis_km": 6861.148831485579,
      "eccentricity": 8.74e-05,
      "inclination_deg": 42.9998,
      "raan_deg": 285.4727,
      "arg_perigee_deg": 297.2418,
      "mean_anomaly_deg": 62.8345,
      "mean_motion_rev_day": 15.27592445
    },
    {
      "epoch": "2026-03-30T05:13:05.596896Z",
      "apogee_km": 483.9431769344792,
      "perigee_km": 482.17024447963286,
      "latitude_deg": 1.1196612307043902e-05,
      "longitude_deg": 12.568961644015985,
      "height_km": 482.781260767788,
      "semi_major_axis_km": 6861.193710707056,
      "eccentricity": 0.0001292,
      "inclination_deg": 43.0029,
      "raan_deg": 278.4546,
      "arg_perigee_deg": 273.3881,
      "mean_anomaly_deg": 86.6823,
      "mean_motion_rev_day": 15.27577457
    },
    {
      "epoch": "2026-03-30T05:13:05.597760Z",
      "apogee_km": 483.94297109866784,
      "perigee_km": 482.1704503154442,
      "latitude_deg": 8.841829512476173e-06,
      "longitude_deg": 12.569055523173216,
      "height_km": 482.78127293058014,
      "semi_major_axis_km": 6861.193710707056,
      "eccentricity": 0.00012917,
      "inclination_deg": 43.0029,
      "raan_deg": 278.4547,
      "arg_perigee_deg": 273.3881,
      "mean_anomaly_deg": 86.6823,
      "mean_motion_rev_day": 15.27577457
    },
    {
      "epoch": "2026-03-30T22:28:49.069920Z",
      "apogee_km": 483.9384570451966,
      "perigee_km": 482.1623700713217,
      "latitude_deg": 8.780774348624071e-06,
      "longitude_deg": 108.86589403548969,
      "height_km": 482.7486927120395,
      "semi_major_axis_km": 6861.187413558258,
      "eccentricity": 0.00012943,
      "inclination_deg": 43.0017,
      "raan_deg": 274.3916,
      "arg_perigee_deg": 275.0733,
      "mean_anomaly_deg": 84.9971,
      "mean_motion_rev_day": 15.2757956
    },
    {
      "epoch": "2026-03-31T18:52:50.971584Z",
      "apogee_km": 483.70168136013854,
      "perigee_km": 482.5778042296688,
      "latitude_deg": -1.622240836257258e-06,
      "longitude_deg": 157.22094059528092,
      "height_km": 482.95919214492517,
      "semi_major_axis_km": 6861.276742794903,
      "eccentricity": 8.19e-05,
      "inclination_deg": 43.0002,
      "raan_deg": 269.5924,
      "arg_perigee_deg": 265.5874,
      "mean_anomaly_deg": 94.4884,
      "mean_motion_rev_day": 15.27549728
    },
    {
      "epoch": "2026-04-01T12:08:34.899936Z",
      "apogee_km": 483.7513367639149,
      "perigee_km": 482.4202595410734,
      "latitude_deg": -1.26991708693221e-05,
      "longitude_deg": -106.48083855310425,
      "height_km": 482.6896520470016,
      "semi_major_axis_km": 6861.222798152494,
      "eccentricity": 9.7e-05,
      "inclination_deg": 42.9993,
      "raan_deg": 265.5326,
      "arg_perigee_deg": 285.0129,
      "mean_anomaly_deg": 75.0615,
      "mean_motion_rev_day": 15.27567743
    }
  ]
}